C/2014 G3 (PANSTARRS),e,156.0755,4.7218,148.1044,53.48453,0.0025198,0.91201244,3.1963,07/25.0/2018,2000,g  9.0,4.0
# From MPC 88697
C/2014 H1 (Christensen),e,99.9348,34.6701,169.3386,140.2012,0.0005937,0.98468109,0.0000,04/15.1827/2014,2000,g 14.5,4.0
# From MPC105541
C/2014 HU195 (Valdes-TOTAS),e,5.8188,115.7668,145.2006,22.03599,0.0095281,0.76744652,11.0791,07/25.0/2018,2000,g 10.5,4.0
# From MPC109588
C/2014 J1 (Catalina),e,159.7109,41.9660,195.5334,8.752107,0.0380658,0.80431959,56.9411,07/25.0/2018,2000,g 17.0,4.0
# From MPC 93585
P/2014 L2 (NEOWISE),e,5.1881,149.3795,182.6305,6.306700,0.0622301,0.64687706,91.5015,07/25.0/2018,2000,g 12.0,4.0
# From MPC 90769
P/2014 L3 (Hill),e,6.2715,115.4988,178.5521,8.156735,0.0423087,0.77360520,62.8919,07/25.0/2018,2000,g 16.0,4.0
# From MPC 95731
C/2014 L5 (Lemmon),e,122.8129,35.7213,45.5316,94299,0.0000000,0.99993424,0.0000,11/24.5507/2014,2000,g  8.0,4.0
# From MPC103844
C/2014 M1 (PANSTARRS),e,160.2151,234.7501,336.9901,4130,0.0000037,0.99864705,0.0000,08/26.8615/2015,2000,g  9.0,4.0
# From MPC109141
C/2014 M2 (Christensen),e,32.4048,245.2581,40.7653,1682,0.0000143,0.99589131,0.0000,07/18.7426/2014,2000,g  6.0,4.0
# From MPC 90769
C/2014 M3 (Catalina),e,164.9025,80.3623,93.6020,125.4971,0.0007011,0.98061731,0.0000,06/20.3271/2014,2000,g 14.0,4.0
# From MPC 91614
P/2014 M4 (PANSTARRS),e,3.3343,263.2913,148.0639,5.882845,0.0690753,0.59347613,90.2909,07/25.0/2018,2000,g 15.0,4.0
# From MPC103844
P/2014 MG4 (Spacewatch-PANSTARRS),e,9.3665,311.7747,298.8948,5.011461,0.0878532,0.26017737,163.8944,07/25.0/2018,2000,g  9.5,4.0
# From MPC 93586
C/2014 N2 (PANSTARRS),e,132.9249,143.8775,238.0626,2512,0.0000078,0.99912689,0.0000,10/07.4681/2014,2000,g 14.5,4.0
# From MPC103844
C/2014 N3 (NEOWISE),e,61.6440,19.9181,353.4370,1756,0.0000134,0.99779245,0.0000,03/12.5515/2015,2000,g  7.0,4.0
# From MPC 98560
P/2014 O3 (PANSTARRS),e,7.8087,87.6424,204.3504,7.550860,0.0475017,0.38614379,74.0499,07/25.0/2018,2000,g 10.5,4.0
# From MPC110493
C/2014 OE4 (PANSTARRS),h,12/11.3967/2016,81.3480,240.3876,65.7943,1.000834,6.245219,2000,11.0,2.0
# From MPC100578
C/2014 Q1 (PANSTARRS),e,43.1017,8.8057,120.1020,1151,0.0000252,0.99972461,0.0000,07/06.1074/2015,2000,g  8.0,4.0
# From MPC103844
C/2014 Q2 (Lovejoy),e,80.2246,95.0296,12.4004,485.3182,0.0000922,0.99733701,0.0000,01/29.4214/2015,2000,g  2.7,10.0
# From MPC 90770
C/2014 QU2 (PANSTARRS),e,124.8133,332.9308,320.2830,222.1992,0.0002976,0.99001811,0.0000,07/09.3080/2014,2000,g 15.0,4.0
# From MPC102952
C/2014 Q3 (Borisov),e,89.8703,63.1379,47.3464,28.01486,0.0066469,0.94115505,8.9404,07/25.0/2018,2000,g -0.5,20.0
# From MPC 95732
C/2014 Q6 (PANSTARRS),e,49.7974,326.5928,2.4706,3508,0.0000047,0.99879780,0.0000,01/06.0537/2015,2000,g  9.5,4.0
# From MPC 95211
C/2014 R1 (Borisov),e,9.9153,104.0346,55.7631,181.4594,0.0004032,0.99255834,0.0000,11/18.7268/2014,2000,g  6.5,8.8
# From MPC110493
C/2014 R3 (PANSTARRS),e,90.8564,334.0978,113.4596,6287,0.0000020,0.99884261,0.0000,08/08.5861/2016,2000,g  6.5,4.0
# From MPC 92982
C/2014 R4 (Gibbs),e,42.3853,279.5581,180.7830,937.2470,0.0000343,0.99805798,0.0000,10/20.3539/2014,2000,g 13.0,4.0
# From MPC 91615
P/2014 R5 (Lemmon-PANSTARRS),e,1.0881,126.5425,213.7125,4.059151,0.1205178,0.41250380,180.7219,07/25.0/2018,2000,g 15.0,4.0
# From MPC 95732
C/2014 S1 (PANSTARRS),h,10/30.3352/2013,123.7789,352.6563,288.7611,1.003485,8.129939,2000,7.0,4.0
# From MPC104790
C/2014 S2 (PANSTARRS),e,64.4105,8.0563,87.4178,178.7131,0.0004125,0.98834192,0.0000,12/09.5804/2015,2000,g 10.0,4.0
# From MPC 90770
C/2014 S3 (PANSTARRS),e,169.3251,356.0838,293.0718,87.04197,0.0012137,0.97651877,0.0000,08/13.2319/2014,2000,g 17.0,4.0
# From MPC 91615
C/2014 TG64 (Catalina),e,22.2963,50.3083,294.5649,14.79282,0.0173232,0.78170163,26.3510,07/25.0/2018,2000,g 13.0,4.0
# From MPC 92274
P/2014 U2 (Kowalski),e,7.2859,354.4543,37.2893,2.907641,0.1987892,0.61538345,271.8833,07/25.0/2018,2000,g 19.5,4.0
# From MPC 91616
C/2014 U3 (Kowalski),e,152.9591,163.5955,51.3054,996.2154,0.0000313,0.99743568,0.0000,09/04.2152/2014,2000,g 14.5,4.0
# From MPC 91616
P/2014 U4 (PANSTARRS),e,6.4445,12.0379,347.9417,3.499323,0.1505664,0.46655713,219.2809,07/25.0/2018,2000,g 18.0,4.0
# From MPC 95211
P/2014 V1 (PANSTARRS),e,22.4801,166.2371,177.5677,5.486130,0.0767017,0.53281897,98.3027,07/25.0/2018,2000,g 14.0,4.0
# From MPC 93586
P/2014 W1 (PANSTARRS),e,8.8400,246.2501,152.5036,4.454432,0.1048372,0.39031479,152.8840,07/25.0/2018,2000,g 15.5,4.0
# From MPC110493
C/2014 W2 (PANSTARRS),e,82.0292,69.9627,84.9834,865.7238,0.0000387,0.99691509,0.0000,03/09.9489/2016,2000,g  7.5,4.0
# From MPC 98561
C/2014 W3 (PANSTARRS),h,02/27.1442/2014,90.1532,286.4315,158.9322,1.005930,6.066752,2000,8.5,4.0
# From MPC105542
P/2014 W4 (PANSTARRS),e,15.2722,33.3456,67.9339,6.605089,0.0580612,0.35333845,54.2989,07/25.0/2018,2000,g 11.0,4.0
# From MPC 95211
C/2014 W6 (Catalina),h,03/19.0913/2015,53.5405,338.1621,209.9469,1.001682,3.093117,2000,10.5,4.0
# From MPC 92982
C/2014 W7 (Christensen),e,98.2242,151.2732,33.2804,11.40699,0.0255828,0.86949955,33.2869,07/25.0/2018,2000,g 16.0,4.0
# From MPC 91616
C/2014 W8 (PANSTARRS),e,41.9432,224.8510,228.0712,179.0198,0.0004115,0.97193250,0.0000,09/10.0042/2015,2000,g 11.0,4.0
# From MPC 94672
C/2014 W9 (PANSTARRS),e,10.6281,21.2917,167.8931,11.20737,0.0262693,0.85788673,32.9800,07/25.0/2018,2000,g 16.0,4.0
# From MPC107047
C/2014 W11 (PANSTARRS),e,12.7142,295.8473,225.6555,9.723295,0.0325075,0.64743381,36.8813,07/25.0/2018,2000,g 10.0,4.0
# From MPC 93587
P/2014 W12 (Gibbs),e,8.5131,299.2772,36.9426,3.517590,0.1493951,0.52347565,201.4940,07/25.0/2018,2000,g 15.0,4.0
# From MPC 94281
P/2014 X1 (Elenin),e,26.0196,61.5124,34.1397,6.223142,0.0634877,0.70925226,82.2776,07/25.0/2018,2000,g 15.0,4.0
# From MPC 96866
C/2014 XB8 (PANSTARRS),e,149.7874,37.5001,351.3762,801.2139,0.0000435,0.99624856,0.0000,04/05.2605/2015,2000,g 13.5,4.0
# From MPC100579
C/2014 Y1 (PANSTARRS),h,01/17.5467/2016,14.9275,19.4756,182.3285,1.001848,2.245220,2000,9.5,4.0
# From MPC 95733
C/2015 A1 (PANSTARRS),e,80.3013,341.0729,244.9140,20.25479,0.0108122,0.90148498,13.2948,07/25.0/2018,2000,g 14.5,4.0
# From MPC 93587
C/2015 A2 (PANSTARRS),p,08/01.8353/2015,109.1696,208.8369,5.341055,258.5042,2000,10.5,4.0
# From MPC 92275
P/2015 A3 (PANSTARRS),e,172.5271,277.1530,249.2384,7.821178,0.0450605,0.85226735,56.3193,07/25.0/2018,2000,g 20.0,4.0
# From MPC 99270
P/2015 B1 (PANSTARRS),e,18.0206,353.2398,188.5863,9.528921,0.0335072,0.37240953,34.7994,07/25.0/2018,2000,g  8.5,4.0
# From MPC108592
C/2015 B2 (PANSTARRS),h,05/06.5620/2016,105.0616,341.9007,284.7491,1.000778,3.368497,2000,9.5,4.0
# From MPC109141
P/2015 B4 (Lemmon-PANSTARRS),e,1.7576,266.0454,227.6419,8.567323,0.0393040,0.56316483,49.4978,07/25.0/2018,2000,g 11.0,4.0
# From MPC101096
P/2015 C1 (TOTAS-Gibbs),e,13.8809,348.8457,178.4458,6.594429,0.0582021,0.56084950,68.7500,07/25.0/2018,2000,g 12.5,4.0
# From MPC 95211
C/2015 C2 (SWAN),e,94.4731,49.5862,334.0424,375.9935,0.0001352,0.99811501,0.0000,03/04.2796/2015,2000,g 14.0,4.0
# From MPC 98561
C/2015 D2 (PANSTARRS),e,31.8988,162.8048,292.6660,12.85356,0.0213879,0.56045203,37.6518,07/25.0/2018,2000,g  8.0,4.0
# From MPC110080
C/2015 D3 (PANSTARRS),h,05/02.9549/2016,128.5236,156.9962,2.9846,1.003075,8.151174,2000,5.5,4.0
# From MPC 94672
C/2015 D4 (Borisov),e,77.3339,305.6193,314.6890,78.25068,0.0014239,0.98900659,0.0000,10/28.2889/2014,2000,g 12.0,4.0
# From MPC109141
P/2015 D5 (Kowalski),e,20.4910,74.0638,40.0872,8.997257,0.0365207,0.49080896,57.3343,07/25.0/2018,2000,g  9.0,4.0
# From MPC 96866
P/2015 D6 (Lemmon-PANSTARRS),e,20.2280,46.2224,125.4784,7.170469,0.0513314,0.36373540,56.9642,07/25.0/2018,2000,g 10.5,4.0
# From MPC110493
C/2015 ER61 (PANSTARRS),e,6.3498,235.2211,68.1885,408.8551,0.0001192,0.99745189,0.0000,05/09.9892/2017,2000,g 11.0,2.0
# From MPEC 2018-BF5
C/2015 E61-B (PANSTARRS),e,6.3514,235.2562,68.2778,877.0502,0.0000379,0.99881019,0.0000,05/09.9669/2017,2000,g 13.5,2.0
# From MPC109142
P/2015 F1 (PANSTARRS),e,2.8037,40.4244,187.3177,3.524209,0.1489744,0.27852792,182.7935,07/25.0/2018,2000,g 12.5,4.0
# From MPC 95733
C/2015 F2 (Polonia),e,28.7250,262.4556,352.1383,38.83502,0.0040726,0.96883169,4.8170,07/25.0/2018,2000,g 16.5,4.0
# From MPC 96279
C/2015 F3 (SWAN),e,73.4342,31.6493,57.4765,187.7268,0.0003832,0.99555826,0.0000,03/08.3652/2015,2000,g 14.5,4.0
# From MPC102952
C/2015 F4 (Jacques),e,48.7655,285.9258,36.3121,114.5870,0.0008035,0.98567589,0.0000,08/11.0472/2015,2000,g 11.0,4.0
# From MPC 95212
C/2015 F5 (SWAN-Xingming),e,149.3129,287.7534,13.4348,15.52916,0.0161058,0.97761245,0.0000,03/27.8402/2015,2000,g 15.5,4.0
# From MPC102096
C/2015 GX (PANSTARRS),e,90.2798,235.5341,108.8965,16.17951,0.0151445,0.87835562,16.0997,07/25.0/2018,2000,g 14.0,4.0
# From MPC109142
C/2015 G2 (MASTER),h,05/23.8853/2015,147.6257,110.1679,257.6079,1.000475,0.781740,2000,11.0,4.0
# From MPC 95733
C/2015 H1 (Bressi),e,140.6112,325.8869,21.8796,31.96535,0.0054536,0.93955962,6.6284,07/25.0/2018,2000,g 13.5,4.0
# From MPC109142
C/2015 H2 (PANSTARRS),h,09/13.6690/2016,33.6960,350.6986,287.9410,1.004661,4.968173,2000,7.5,4.0
# From MPC 10028
P/2015 HG16 (PANSTARRS),e,18.8933,59.3368,47.4589,4.765177,0.0947514,0.34584751,141.3053,07/25.0/2018,2000,g 12.5,4.0
# From MPC100579
C/2015 J1 (PANSTARRS),h,06/29.2472/2014,94.9877,219.9924,315.5475,1.000529,6.029080,2000,8.5,4.0
# From MPC101096
C/2015 J2 (PANSTARRS),e,17.2794,56.7293,203.7979,279.0002,0.0002115,0.98450420,0.0000,09/09.6141/2015,2000,g 10.0,4.0
# From MPC 95733
P/2015 J3 (NEOWISE),e,8.1279,111.3634,129.3794,3.350553,0.1607050,0.55459031,199.0117,07/25.0/2018,2000,g 16.5,4.0
# From MPC101096
C/2015 K1 (MASTER),e,29.3674,5.1486,280.1886,187.9639,0.0003825,0.98641295,0.0000,10/14.2296/2014,2000,g  9.0,4.0
# From MPC 95733
C/2015 K2 (PANSTARRS),e,29.1203,223.6864,15.8670,289.7343,0.0001999,0.99497073,0.0000,06/09.0779/2015,2000,g 20.0,4.0
# From MPC 95733
